CUTE-1 (CO-55)          
1 27844U 03031E   23146.80060785  .00000322  00000+0  16298-3 0  9997
2 27844  98.6778 154.3711 0009750 180.3263 179.7910 14.22770507 32697
CUBESAT XI-IV (CO-57)   
1 27848U 03031J   23146.24155287  .00000294  00000+0  15217-3 0  9999
2 27848  98.6815 154.2441 0009275 197.2144 162.8720 14.22282041 32388
CUBESAT XI-V            
1 28895U 05043F   23146.90762277  .00001498  00000+0  28415-3 0  9994
2 28895  98.1508 279.1348 0017285 136.6030 223.6538 14.65597510937697
CUTE-1.7+APD II (CO-65) 
1 32785U 08021C   23146.87320495  .00002710  00000+0  27145-3 0  9991
2 32785  97.7047 113.2893 0012490 165.9871 194.1697 14.92143205817645
AAUSAT-II               
1 32788U 08021F   23146.92274415  .00007095  00000+0  52396-3 0  9997
2 32788  97.5600 126.8252 0010572  73.8229 286.4160 15.03497151819910
DELFI-C3 (DO-64)        
1 32789U 08021G   23146.59680608  .00041757  00000+0  12477-2 0  9994
2 32789  97.3047 168.2652 0007878 174.5920 185.5410 15.34441598824078
SEEDS II (CO-66)        
1 32791U 08021J   23146.67651637  .00005396  00000+0  47921-3 0  9998
2 32791  97.6555 118.3703 0014040 119.0494 241.2136 14.96477817818449
SWISSCUBE               
1 35932U 09051B   23146.56871624  .00000954  00000+0  21962-3 0  9992
2 35932  98.5239  16.4118 0008809  75.1606 285.0567 14.57686456726067
BEESAT-1                
1 35933U 09051C   23146.59787850  .00000820  00000+0  19069-3 0  9990
2 35933  98.5169  17.7905 0007038  85.8648 274.3354 14.57599696726148
ITUPSAT1                
1 35935U 09051E   23146.62403857  .00000752  00000+0  17926-3 0  9992
2 35935  98.5270  17.7705 0009319  89.7676 270.4589 14.56652144725827
TISAT 1                 
1 36799U 10035E   23146.87900469  .00003192  00000+0  28902-3 0  9990
2 36799  98.1398  15.6791 0012301  49.5513 310.6778 14.96103626699045
M-CUBED & EXP-1 PRIME   
1 37855U 11061F   23146.82840122  .00020863  00000+0  67174-3 0  9996
2 37855 101.7053  96.5593 0122589 105.5142 255.9654 15.25241051633306
AEROCUBE 4.5A           
1 38767U 12048K   23146.88990597  .00004549  00000+0  31537-3 0  9990
2 38767  64.6632 108.7961 0127452 162.6610 197.8921 15.00532236202193
AEROCUBE 4.5B           
1 38768U 12048L   23146.92931466  .00008520  00000+0  49593-3 0  9990
2 38768  64.6655  53.6871 0107557 156.6357 203.9705 15.07810983202769
STRAND-1                
1 39090U 13009E   23146.88473805  .00000287  00000+0  11445-3 0  9997
2 39090  98.3898 340.8308 0008368 335.7516  24.3276 14.35588610536660
BRITE-AUSTRIA           
1 39091U 13009F   23146.53321091  .00000186  00000+0  79443-4 0  9990
2 39091  98.3926 339.7126 0009999 342.6868  17.3976 14.35479069536640
SOMP                    
1 39134U 13015E   23146.88937946  .00071688  00000+0  92355-3 0  9996
2 39134  64.8506 358.6497 0017679 252.9178 107.0032 15.58432232559666
BEESAT-3                
1 39135U 13015F   23146.89697336  .00028663  00000+0  67592-3 0  9994
2 39135  64.8598  48.3985 0020878 241.5248 118.3787 15.41582219558653
BEESAT-2                
1 39136U 13015G   23146.90129784  .00026989  00000+0  69604-3 0  9999
2 39136  64.8692  59.6061 0026383 275.5343  84.2784 15.38753549558402
NEE-01 PEGASO           
1 39151U 13018B   23146.79655712  .00002097  00000+0  26624-3 0  9990
2 39151  98.0067 256.9341 0015443 217.3455 142.6686 14.82688388544513
ESTCUBE 1               
1 39161U 13021C   23146.77308048  .00001562  00000+0  24357-3 0  9997
2 39161  97.8715 219.6461 0010152  46.7025 313.5029 14.74248566539974
POPACS 1                
1 39268U 13055D   23144.18908585  .00020940  00000+0  47803-3 0  9999
2 39268  80.9944 229.1515 0510581 240.7654 114.1587 14.65492151502920
POPACS 2                
1 39269U 13055E   23144.15422557  .00014409  00000+0  36647-3 0  9994
2 39269  81.0067 297.7438 0608279  59.1169 306.8386 14.42728957500330
POPACS 3                
1 39270U 13055F   23146.80592224  .00011858  00000+0  34445-3 0  9998
2 39270  81.0121 334.7923 0664096 163.4797 198.9227 14.28123778477510
ZACUBE-1 (TSHEPISOSAT)  
1 39417U 13066B   23146.87088027  .00003062  00000+0  35702-3 0  9996
2 39417  97.6839 109.2881 0054963 359.6379   0.4787 14.84845423514038
WNISAT-1                
1 39423U 13066H   23146.61382353  .00000818  00000+0  16730-3 0  9990
2 39423  97.7061   6.9841 0173645 144.2079 217.0905 14.54142950504091
TRITON-1                
1 39427U 13066M   23146.81084376  .00001578  00000+0  24406-3 0  9993
2 39427  97.8350  73.4825 0106701 245.8919 113.1098 14.70925583509215
DELFI-N3XT              
1 39428U 13066N   23146.77019191  .00002993  00000+0  43705-3 0  9997
2 39428  97.8330  72.3681 0109171 258.1110 100.7840 14.72481373508982
GOMX-1                  
1 39430U 13066Q   23146.89980384  .00002216  00000+0  38959-3 0  9997
2 39430  97.7820  39.2789 0146879  41.1935 320.0242 14.61735400506241
CUBEBUG-2 (LO-74)       
1 39440U 13066AA  23146.86299646  .00002637  00000+0  34406-3 0  9999
2 39440  97.7712  96.3154 0077324  96.4196 264.5828 14.79272785511005
NEE-02 KRYSAOR          
1 39441U 13066AB  23146.81081299  .00001731  00000+0  23811-3 0  9990
2 39441  97.7823  93.1279 0079892 112.7940 248.1736 14.77344061510698
FUNCUBE-1 (AO-73)       
1 39444U 13066AE  23146.85787903  .00004306  00000+0  48046-3 0  9990
2 39444  97.6703 111.8034 0052705 345.3187  14.6496 14.86519571512472
UWE-3                   
1 39446U 13066AG  23146.82494761  .00003392  00000+0  41853-3 0  9999
2 39446  97.7334 102.4551 0067081  49.9815 310.7258 14.81918522511269
BRITE-CA1 (TORONTO)     
1 40020U 14033L   23146.88970182  .00000899  00000+0  15755-3 0  9997
2 40020  97.8235 294.4435 0084153 247.7782 111.4481 14.67927968478021
DUCHIFAT-1              
1 40021U 14033M   23146.84353493  .00006491  00000+0  55896-3 0  9998
2 40021  98.0567 110.1199 0010391 357.5528   2.5641 14.97675426485999
NANOSATC-BR1            
1 40024U 14033Q   23146.84721672  .00004091  00000+0  37264-3 0  9992
2 40024  98.0272 101.4434 0010900   3.3694 356.7598 14.95696798485220
QB50P1                  
1 40025U 14033R   23146.83359224  .00003447  00000+0  33074-3 0  9991
2 40025  97.9955  93.2159 0011593  13.5896 346.5633 14.93740513484954
QB50P2                  
1 40032U 14033Y   23146.81078249  .00002954  00000+0  29027-3 0  9997
2 40032  97.9663  87.0965 0011138  12.5041 347.6452 14.92910492484786
PERSEUS-M2              
1 40037U 14033AD  23146.76071864  .00001528  00000+0  17087-3 0  9991
2 40037  97.9082  72.4744 0014828  36.3687 323.8534 14.88348113484167
PERSEUS-M1              
1 40039U 14033AF  23146.77695235  .00001595  00000+0  17956-3 0  9997
2 40039  97.8942  69.5424 0014686  35.8798 324.3402 14.88000447484035
POLYITAN-1              
1 40042U 14033AJ  23146.84734117  .00004744  00000+0  44408-3 0  9993
2 40042  98.0067  95.0553 0013087   4.3850 355.7482 14.94512353484858
TIGRISAT                
1 40043U 14033AK  23146.49842614  .00001937  00000+0  27773-3 0  9994
2 40043  97.6649 322.6309 0059081 123.3850 237.3033 14.76428840480214
AEROCUBE 6A             
1 40045U 14033AM  23146.50876141  .00003445  00000+0  46506-3 0  9991
2 40045  97.6584 332.3070 0056275 108.7408 251.9922 14.78601046480666
AEROCUBE 6B             
1 40046U 14033AN  23146.48582325  .00003407  00000+0  45238-3 0  9996
2 40046  97.6526 330.7401 0054889 106.0442 254.6825 14.79360996480446
UKUBE-1                 
1 40074U 14037F   23146.73595016  .00003750  00000+0  41378-3 0  9992
2 40074  98.3465  50.0990 0002391 251.0540 109.0416 14.88136973481067
BRITE-PL2 (HEWELIUSZ)   
1 40119U 14049B   23146.83818763  .00001577  00000+0  18408-3 0  9996
2 40119  97.8795 244.1351 0016492 192.8443 167.2354 14.86507082474997
FIREBIRD 4              
1 40378U 15003C   23146.80059347  .00108168  00000+0  93389-3 0  9991
2 40378  99.0777  99.8334 0038789 278.2671  81.4187 15.67880721461293
GRIFEX                  
1 40379U 15003D   23146.79823341  .00033265  00000+0  75074-3 0  9999
2 40379  99.0779  78.4211 0082430 346.5356  13.3684 15.39572382460086
CP10 (EXOCUBE)          
1 40380U 15003E   23146.70366379  .00025298  00000+0  71662-3 0  9991
2 40380  99.0841  68.4211 0099261  19.5999 340.9010 15.31396738459437
EXACTVIEW 9             
1 40936U 15052G   23146.72634443  .00002148  00000+0  20045-3 0  9992
2 40936   6.0027 241.6405 0010269 338.7931  21.1771 14.78482209414073
AEROCUBE 5C             
1 40965U 15058B   23146.88510059  .00002781  00000+0  31747-3 0  9997
2 40965  64.7721 106.7166 0161900  80.0521 281.8814 14.79167989199690
AEROCUBE 7              
1 40966U 15058C   23146.23146328  .00003650  00000+0  40403-3 0  9996
2 40966  64.7712 104.9958 0159390  79.9989 281.9062 14.80074807199611
ATHENOXAT 1             
1 41168U 15077C   23146.89829042  .00104126  00000+0  15062-2 0  9997
2 41168  14.9869  28.0522 0003727  57.4008 302.6678 15.54032919412997
GALASSIA                
1 41170U 15077E   23145.92233267  .00040541  00000+0  10238-2 0  9991
2 41170  14.9879  42.5075 0006597  74.2573 285.8479 15.37794048412627
VELOX-II                
1 41171U 15077F   23146.19338521  .00016755  00000+0  58837-3 0  9999
2 41171  14.9895 139.0658 0006715 237.2482 122.7194 15.26614411411891
HORYU-4                 
1 41340U 16012D   23146.80738921  .00005883  00000+0  37055-3 0  9992
2 41340  31.0051 320.8144 0011792  27.7422 332.3843 15.07632131399499
E-ST@R-II               
1 41459U 16025D   23146.82260784  .00025312  00000+0  75474-3 0  9992
2 41459  98.1888 345.9771 0109981 173.0810 187.1978 15.28780310389636
AAUSAT 4                
1 41460U 16025E   23146.57182460  .00083342  00000+0  12388-2 0  9991
2 41460  98.1636 357.5674 0065006 131.2474 229.4403 15.52406818390417
BEESAT-4                
1 41619U 16040W   23146.67244209  .00065533  00000+0  91100-3 0  9997
2 41619  97.1598 196.1204 0002540 301.0374  59.0632 15.56777217373527
